{
  "type": "FeatureCollection",
  "features": [
    {
      "type": "Feature",
      "properties": {
        "norad_id": 37836,
        "name": "EUTELSAT 16A",
        "group": "eutelsat",
        "lat": -0.05274044661334832,
        "lon": -34.92556014907593,
        "alt_km": 35771.565927359545,
        "timestamp": "2025-12-15T14:57:57.511229+00:00",
        "meta_object_name": "EUTELSAT 16A",
        "meta_object_id": "2011-057A",
        "meta_epoch": "2025-12-14T22:03:19.070208",
        "meta_mean_motion": 1.00273192,
        "meta_eccentricity": 0.00060905,
        "meta_inclination": 0.0613,
        "meta_ra_of_asc_node": 15.4541,
        "meta_arg_of_pericenter": 252.6963,
        "meta_mean_anomaly": 162.5176,
        "meta_ephemeris_type": 0,
        "meta_classification_type": "U",
        "meta_norad_cat_id": 37836,
        "meta_element_set_no": 999,
        "meta_rev_at_epoch": 548,
        "meta_bstar": 0,
        "meta_mean_motion_dot": 1.24e-06,
        "meta_mean_motion_ddot": 0,
        "tle_line1": "1 37836U 11057A   25348.91897072  .00000124  00000+0  00000+0 0  9991",
        "tle_line2": "2 37836   0.0613  15.4541 0006090 252.6963 162.5176  1.00273192  5487"
      },
      "geometry": {
        "type": "Point",
        "coordinates": [
          -34.92556014907593,
          -0.05274044661334832
        ]
      }
    },
    {
      "type": "Feature",
      "properties": {
        "norad_id": 38992,
        "name": "EUTELSAT 21B",
        "group": "eutelsat",
        "lat": -0.04759065239029286,
        "lon": -29.35241426492445,
        "alt_km": 35777.57783174799,
        "timestamp": "2025-12-15T14:57:57.511240+00:00",
        "meta_object_name": "EUTELSAT 21B",
        "meta_object_id": "2012-062B",
        "meta_epoch": "2025-12-14T22:04:56.413632",
        "meta_mean_motion": 1.0027346,
        "meta_eccentricity": 0.00034235,
        "meta_inclination": 0.0682,
        "meta_ra_of_asc_node": 10.9755,
        "meta_arg_of_pericenter": 263.0985,
        "meta_mean_anomaly": 162.599,
        "meta_ephemeris_type": 0,
        "meta_classification_type": "U",
        "meta_norad_cat_id": 38992,
        "meta_element_set_no": 999,
        "meta_rev_at_epoch": 4798,
        "meta_bstar": 0,
        "meta_mean_motion_dot": 1.5e-06,
        "meta_mean_motion_ddot": 0,
        "tle_line1": "1 38992U 12062B   25348.92009738  .00000150  00000+0  00000+0 0  9996",
        "tle_line2": "2 38992   0.0682  10.9755 0003423 263.0985 162.5990  1.00273460 47984"
      },
      "geometry": {
        "type": "Point",
        "coordinates": [
          -29.35241426492445,
          -0.04759065239029286
        ]
      }
    },
    {
      "type": "Feature",
      "properties": {
        "norad_id": 39020,
        "name": "EUTELSAT 70B",
        "group": "eutelsat",
        "lat": 0.0443512723343433,
        "lon": 19.54354983720814,
        "alt_km": 35798.15113865084,
        "timestamp": "2025-12-15T14:57:57.511251+00:00",
        "meta_object_name": "EUTELSAT 70B",
        "meta_object_id": "2012-069A",
        "meta_epoch": "2025-12-14T22:18:47.587680",
        "meta_mean_motion": 1.00270952,
        "meta_eccentricity": 0.00043027,
        "meta_inclination": 0.0613,
        "meta_ra_of_asc_node": 350.8642,
        "meta_arg_of_pericenter": 257.9707,
        "meta_mean_anomaly": 240.209,
        "meta_ephemeris_type": 0,
        "meta_classification_type": "U",
        "meta_norad_cat_id": 39020,
        "meta_element_set_no": 999,
        "meta_rev_at_epoch": 4766,
        "meta_bstar": 0,
        "meta_mean_motion_dot": -2.3e-07,
        "meta_mean_motion_ddot": 0,
        "tle_line1": "1 39020U 12069A   25348.92971745 -.00000023  00000+0  00000+0 0  9992",
        "tle_line2": "2 39020   0.0613 350.8642 0004302 257.9707 240.2090  1.00270952 47666"
      },
      "geometry": {
        "type": "Point",
        "coordinates": [
          19.54354983720814,
          0.0443512723343433
        ]
      }
    },
    {
      "type": "Feature",
      "properties": {
        "norad_id": 39122,
        "name": "EUTELSAT 117 WEST A",
        "group": "eutelsat",
        "lat": -0.0026786546590429386,
        "lon": -167.83168250464476,
        "alt_km": 35782.90801137154,
        "timestamp": "2025-12-15T14:57:57.511262+00:00",
        "meta_object_name": "EUTELSAT 117 WEST A",
        "meta_object_id": "2013-012A",
        "meta_epoch": "2025-12-14T21:25:15.215808",
        "meta_mean_motion": 1.00272234,
        "meta_eccentricity": 0.00028179,
        "meta_inclination": 0.0198,
        "meta_ra_of_asc_node": 29.1225,
        "meta_arg_of_pericenter": 238.4725,
        "meta_mean_anomaly": 20.7175,
        "meta_ephemeris_type": 0,
        "meta_classification_type": "U",
        "meta_norad_cat_id": 39122,
        "meta_element_set_no": 999,
        "meta_rev_at_epoch": 4658,
        "meta_bstar": 0,
        "meta_mean_motion_dot": 7e-08,
        "meta_mean_motion_ddot": 0,
        "tle_line1": "1 39122U 13012A   25348.89253722  .00000007  00000+0  00000+0 0  9999",
        "tle_line2": "2 39122   0.0198  29.1225 0002817 238.4725  20.7175  1.00272234 46583"
      },
      "geometry": {
        "type": "Point",
        "coordinates": [
          -167.83168250464476,
          -0.0026786546590429386
        ]
      }
    },
    {
      "type": "Feature",
      "properties": {
        "norad_id": 39163,
        "name": "EUTELSAT 7B",
        "group": "eutelsat",
        "lat": -0.07947773325831307,
        "lon": -43.98429249598872,
        "alt_km": 35765.82661484669,
        "timestamp": "2025-12-15T14:57:57.511273+00:00",
        "meta_object_name": "EUTELSAT 7B",
        "meta_object_id": "2013-022A",
        "meta_epoch": "2025-12-14T22:09:38.644416",
        "meta_mean_motion": 1.00273897,
        "meta_eccentricity": 0.00046765,
        "meta_inclination": 0.0764,
        "meta_ra_of_asc_node": 25.1173,
        "meta_arg_of_pericenter": 294.6964,
        "meta_mean_anomaly": 103.4419,
        "meta_ephemeris_type": 0,
        "meta_classification_type": "U",
        "meta_norad_cat_id": 39163,
        "meta_element_set_no": 999,
        "meta_rev_at_epoch": 4610,
        "meta_bstar": 0,
        "meta_mean_motion_dot": 6.8e-07,
        "meta_mean_motion_ddot": 0,
        "tle_line1": "1 39163U 13022A   25348.92336394  .00000068  00000+0  00000+0 0  9993",
        "tle_line2": "2 39163   0.0764  25.1173 0004676 294.6964 103.4419  1.00273897 46103"
      },
      "geometry": {
        "type": "Point",
        "coordinates": [
          -43.98429249598872,
          -0.07947773325831307
        ]
      }
    },
    {
      "type": "Feature",
      "properties": {
        "norad_id": 39612,
        "name": "EXPRESS-AT1",
        "group": "eutelsat",
        "lat": 0.016781759024006544,
        "lon": 5.001066904108272,
        "alt_km": 35786.135850484505,
        "timestamp": "2025-12-15T14:57:57.511284+00:00",
        "meta_object_name": "EXPRESS-AT1",
        "meta_object_id": "2014-010A",
        "meta_epoch": "2025-12-14T10:15:41.842368",
        "meta_mean_motion": 1.00273481,
        "meta_eccentricity": 3.134e-05,
        "meta_inclination": 0.0196,
        "meta_ra_of_asc_node": 344.8805,
        "meta_arg_of_pericenter": 139.4475,
        "meta_mean_anomaly": 168.9348,
        "meta_ephemeris_type": 0,
        "meta_classification_type": "U",
        "meta_norad_cat_id": 39612,
        "meta_element_set_no": 999,
        "meta_rev_at_epoch": 4296,
        "meta_bstar": 0,
        "meta_mean_motion_dot": 0,
        "meta_mean_motion_ddot": 0,
        "tle_line1": "1 39612U 14010A   25348.42756762  .00000000  00000+0  00000+0 0  9996",
        "tle_line2": "2 39612   0.0196 344.8805 0000313 139.4475 168.9348  1.00273481 42967"
      },
      "geometry": {
        "type": "Point",
        "coordinates": [
          5.001066904108272,
          0.016781759024006544
        ]
      }
    },
    {
      "type": "Feature",
      "properties": {
        "norad_id": 39613,
        "name": "EXPRESS-AT2",
        "group": "eutelsat",
        "lat": 0.019003312712160148,
        "lon": 88.86065658195865,
        "alt_km": 35790.087059724465,
        "timestamp": "2025-12-15T14:57:57.511294+00:00",
        "meta_object_name": "EXPRESS-AT2",
        "meta_object_id": "2014-010B",
        "meta_epoch": "2025-12-15T03:46:33.450240",
        "meta_mean_motion": 1.00273059,
        "meta_eccentricity": 0.0001184,
        "meta_inclination": 0.0156,
        "meta_ra_of_asc_node": 287.4019,
        "meta_arg_of_pericenter": 12.0254,
        "meta_mean_anomaly": 341.1258,
        "meta_ephemeris_type": 0,
        "meta_classification_type": "U",
        "meta_norad_cat_id": 39613,
        "meta_element_set_no": 999,
        "meta_rev_at_epoch": 4265,
        "meta_bstar": 0,
        "meta_mean_motion_dot": -2.6e-06,
        "meta_mean_motion_ddot": 0,
        "tle_line1": "1 39613U 14010B   25349.15733160 -.00000260  00000+0  00000+0 0  9994",
        "tle_line2": "2 39613   0.0156 287.4019 0001184  12.0254 341.1258  1.00273059 42653"
      },
      "geometry": {
        "type": "Point",
        "coordinates": [
          88.86065658195865,
          0.019003312712160148
        ]
      }
    }
  ]
}